    PK20K090  2029 09 29.3719  2.860601  0.320107  197.0896  166.3106   23.1899  20250726  12.5  4.0  P/2020 K9 (Lemmon-PANSTARRS)                             MPEC 2021-BE3
    PK20M010  2019 12 23.2179  2.796305  0.473556   72.4880  142.6159    8.5346  20250726  14.5  4.0  P/2020 M1 (PANSTARRS)                                    MPEC 2023-C45
    CK20M030  2020 10 25.7253  1.275400  0.953295  328.6717   71.1775   23.4701  20250726  14.5  4.0  C/2020 M3 (ATLAS)                                        MPEC 2022-H30
    AK20M040  2020 11 22.7267  5.940579  0.999693  104.4758  348.6138  160.1018  20250726  14.5  2.0  A/2020 M4                                                MPEC 2023-N01
    PK20M04K  2027 04 19.5453  6.130041  0.015165   93.6316    0.6630    6.7813  20250726   8.0  4.0  P/2020 MK4 (PANSTARRS)                                   MPEC 2024-NE4
    CK20M050  2021 08 19.7423  2.999882  1.000112  126.2447  352.0166   93.1724  20250726   9.0  4.0  C/2020 M5 (ATLAS)                                        MPEC 2023-FK0
    CK20N010  2021 03 13.1662  1.317656  1.000874  186.8383  279.8558   29.7668  20250726  12.5  4.0  C/2020 N1 (PANSTARRS)                                    MPEC 2022-GA9
    CK20N020  2020 08 24.3121  1.783619  0.982387  331.1976  257.1790  161.0387  20250726  16.0  3.2  C/2020 N2 (ATLAS)                                        MPEC 2021-P47
    CK20O020  2021 08 27.2420  4.856341  0.999558   10.1701  256.7911   71.7624  20250726   8.0  3.2  C/2020 O2 (Amaral)                                       MPEC 2024-JU4
    PK20O030  2021 01 24.8123  4.170305  0.102413   81.1849  266.8175    8.4444  20250726  12.0  4.0  P/2020 O3 (PANSTARRS)                                    MPEC 2023-C45
    CK20P010  2020 10 21.2272  0.341868  1.000440    8.9344   53.4887   45.1073  20250726  14.0  3.2  C/2020 P1 (NEOWISE)                                      MPEC 2021-BE3
    CK20P030  2021 04 22.9609  6.816215  1.003730   82.3515   19.4847   61.8538  20250726   6.0  4.0  C/2020 P3 (ATLAS)                                        MPEC 2024-JU4
    CK20P06V  2021 09 25.7798  2.290995  0.944983   71.2783  329.1275  128.1524  20250726  10.0  4.0  C/2020 PV6 (PANSTARRS)                                   MPEC 2022-PB4
    CK20Q010  2020 08 15.3478  1.319377  0.978850   10.0306   52.4131  142.9214  20250726  14.0  4.0  C/2020 Q1 (Borisov)                                      MPEC 2022-L66
    CK20Q020  2020 01 24.6788  5.419498  0.488789  118.2008  179.8280    3.3358  20250726  12.0  3.2  C/2020 Q2 (PANSTARRS)                                    MPEC 2023-CD7
    CK20R020  2022 02 25.3536  4.699517  0.989082  211.8860  195.1281   53.2148  20250726   9.0  4.0  C/2020 R2 (PANSTARRS)                                    MPEC 2024-F34
    CK20R040  2021 03  2.1917  1.020524  0.989495   46.5087  323.2320  164.4025  20250726  13.5  4.0  C/2020 R4 (ATLAS)                                        MPEC 2022-K19
    PK20R050  2020 05 27.3436  3.430010  0.313094   82.7534  272.9378   11.4394  20250726   9.5  6.0  P/2020 R5 (PANSTARRS)                                    MPEC 2023-C45
    CK20R060  2019 09  6.7957  3.139509  0.989201  271.9976   12.2379   82.8944  20250726  11.0  4.0  C/2020 R6 (Rankin)                                       MPEC 2021-Y10
    CK20R070  2022 09 16.0247  2.951634  0.999620  347.7574  268.3101  114.9031  20250726   7.0  3.2  C/2020 R7 (ATLAS)                                        MPEC 2024-PC5
    PK20S010  2021 01 16.8617  2.960098  0.506825  255.1669  129.4896   13.7145  20250726  14.0  4.0  P/2020 S1 (PANSTARRS)                                    MPEC 2021-BE3
    CK20S020  2020 12 22.0158  1.764079  0.827917  202.4273  197.7099   22.3735  20250726  17.0  4.0  C/2020 S2 (PANSTARRS)                                    MPEC 2022-ST7
    CK20S030  2020 12 11.3683  0.392448  0.997220  350.0482  222.5143   20.0689  20250726  13.5  3.2  C/2020 S3 (Erasmus)                                      MPEC 2024-JU4
    CK20S040  2023 02  9.5968  3.370482  1.002775   21.0624  117.6815   20.5703  20250726   8.5  3.2  C/2020 S4 (PANSTARRS)                                    MPEC 2024-N80
    PK20S050  2028 10 11.3584  2.689577  0.337306   53.2761  316.0192   12.3401  20250726  14.5  4.0  P/2020 S5 (PANSTARRS)                                    MPEC 2021-BE3
    PK20S070  2020 11 17.4705  2.974452  0.409468   40.6643  328.0820   16.0697  20250726  14.5  4.0  P/2020 S7 (PANSTARRS)                                    MPEC 2021-BE3
    CK20S080  2021 04 10.3424  2.355542  0.990132  160.1259   24.0053  108.5445  20250726  12.5  4.0  C/2020 S8 (Lemmon)                                       MPEC 2021-P47
    CK20T020  2021 07 10.5631  2.052167  0.992360  150.3421   83.0326   27.8398  20250726  11.0  3.2  C/2020 T2 (Palomar)                                      MPEC 2022-TD3
    PK20T030  2027 08 27.4643  1.433009  0.592436  357.0820   73.9916    7.2984  20250726  18.0  3.2  P/2020 T3 (PANSTARRS)                                    MPEC 2021-N06
    CK20T040  2021 07  6.1232  2.187472  1.000658   79.5690   50.6059   83.8261  20250726  13.0  3.2  C/2020 T4 (PANSTARRS)                                    MPEC 2021-N06
    CK20T050  2020 10  7.6772  1.898114  0.996860   90.3849  237.8448   66.5586  20250726  16.0  4.0  C/2020 T5 (Lemmon)                                       MPEC 2021-BE3
    PK20U020  2028 05  1.4956  1.846107  0.511333   84.7751  342.8141    6.4198  20250726  18.0  4.0  P/2020 U2 (PANSTARRS)                                    MPEC 2021-N06
    CK20U030  2021 02  5.9775  2.286010  0.966223  124.5211  282.5985   30.1386  20250726  15.0  4.0  C/2020 U3 (Rankin)                                       MPEC 2021-W31
    CK20U040  2022 04 10.0382  5.362034  1.001256   70.1773  120.4058  167.0034  20250726   7.0  4.0  C/2020 U4 (PANSTARRS)                                    MPEC 2024-TD8
    CK20U050  2022 04 28.4037  3.756799  0.999687   75.4668  107.3132   97.3130  20250726   8.0  4.0  C/2020 U5 (PANSTARRS)                                    MPEC 2024-GJ3
    CK20V020  2023 05  8.5304  2.229385  1.001074  162.4615  212.4016  131.6120  20250726   4.9  4.0  C/2020 V2 (ZTF)                                          MPC185656
    PK20V030  2021 02 15.8078  6.240039  0.257886  249.8160  198.2694   23.0205  20250726   8.3  4.0  P/2020 V3 (PANSTARRS)                                    MPEC 2023-D72
    PK20V040  2021 07 20.7628  5.154247  0.451606  257.2592  203.4888   14.2365  20250726   9.0  4.0  P/2020 V4 (Rankin)                                       MPEC 2024-F34
    PK20W010  2020 04 10.2901  5.308170  0.265428  265.3988  124.3856   10.7771  20250726  10.0  4.0  P/2020 W1 (Rankin)                                       MPEC 2021-BE3
    CK20W050  2020 11 30.9559  3.371078  1.002190   24.6100   75.4675   88.6151  20250726  15.0  4.0  C/2020 W5 (Lemmon)                                       MPEC 2021-BE3
    PK20W05J  2021 06 30.6030  4.979935  0.172152  338.0889  177.7619   22.2882  20250726   8.5  4.0  P/2020 WJ5 (Lemmon)                                      MPEC 2024-PC5
    PK20X010  2030 03 18.9235  2.883449  0.364363  323.5278   55.9881   31.6913  20250726  13.0  4.0  P/2020 X1 (ATLAS)                                        MPEC 2024-F34
    CK20X020  2020 11 17.2128  3.832614  0.768337  347.5759  105.3548   18.1867  20250726  10.6  4.0  C/2020 X2 (ATLAS)                                        MPEC 2024-A43
    CK20X040  2020 11 15.4110  5.223955  0.871267  140.2896  161.9571   80.6594  20250726   9.0  4.0  C/2020 X4 (Leonard)                                      MPEC 2021-S45
    CK20Y020  2022 06 17.7485  3.146335  0.997506  266.4149   26.5400  101.2153  20250726   6.5  4.0  C/2020 Y2 (ATLAS)                                        MPEC 2024-YC7
    CK20Y030  2020 12  3.2272  1.990197  0.985520  341.8492  191.3408   83.1458  20250726  13.5  4.0  C/2020 Y3 (ATLAS)                                        MPEC 2021-R75
    CK21A010  2022 01  3.8407  0.615295  1.000248  225.1354  255.9108  132.7532  20250726   8.5  4.0  C/2021 A1 (Leonard)                                      MPEC 2025-A40
    CK21A020  2021 01 21.8562  1.416479  0.993831  338.8019  125.0585  107.0566  20250726  13.5  4.0  C/2021 A2 (NEOWISE)                                      MPEC 2025-A40
    CK21A040  2021 03 19.5870  1.150439  0.972955  204.7557  307.0891  111.6514  20250726  16.0  4.0  C/2021 A4 (NEOWISE)                                      MPEC 2022-ED3
    PK21A050  2026 03 11.3125  2.620487  0.139782   61.5443  328.8096   18.1896  20250726  15.0  4.0  P/2021 A5 (PANSTARRS)                                    MPEC 2021-BE3
    CK21A060  2021 05  3.0940  7.924839  0.999365  351.6273  164.0232   75.5627  20250726   7.0  4.0  C/2021 A6 (PANSTARRS)                                    MPEC 2024-P23
    CK21A070  2021 07 15.1628  1.965228  0.998963  356.0024  154.3985   78.2209  20250726  10.0  4.0  C/2021 A7 (NEOWISE)                                      MPEC 2022-M88
    CK21A090  2023 12  4.0383  7.764040  0.999976  211.6418  314.8537  158.0181  20250726   6.0  4.0  C/2021 A9 (PANSTARRS)                                    MPC182879
    CK21A100  2021 03 14.7059  1.266985  0.985882   82.6529  188.8456  151.9973  20250726  19.0  4.0  C/2021 A10 (NEOWISE)                                     MPEC 2021-N06
    CK21B020  2021 05  4.8595  2.515208  0.993867  335.1249  120.4358   38.0873  20250726  14.0  4.0  C/2021 B2 (PANSTARRS)                                    MPEC 2022-L66
    CK21B030  2021 03  9.2455  2.168652  0.936631  293.6085   67.2837  119.4781  20250726  13.5  4.0  C/2021 B3 (NEOWISE)                                      MPEC 2021-N06
    CK21C010  2020 12  5.6718  3.472875  0.998060  336.0540  186.8238  143.0432  20250726  11.5  4.0  C/2021 C1 (Rankin)                                       MPEC 2023-KD6
